{
  "type": "FeatureCollection",
  "features": [
    {
      "type": "Feature",
      "properties": {
        "norad_id": 38250,
        "name": "BEIDOU-2 M3 (C11)",
        "group": "beidou",
        "lat": -18.31329921354086,
        "lon": 144.15519980625578,
        "alt_km": 21508.960214356848,
        "timestamp": "2025-12-10T11:33:53.650514+00:00",
        "meta_object_name": "BEIDOU-2 M3 (C11)",
        "meta_object_id": "2012-018A",
        "meta_epoch": "2025-12-09T02:31:53.071968",
        "meta_mean_motion": 1.86229533,
        "meta_eccentricity": 0.00244707,
        "meta_inclination": 55.9232,
        "meta_ra_of_asc_node": 311.2798,
        "meta_arg_of_pericenter": 273.7022,
        "meta_mean_anomaly": 86.0063,
        "meta_ephemeris_type": 0,
        "meta_classification_type": "U",
        "meta_norad_cat_id": 38250,
        "meta_element_set_no": 999,
        "meta_rev_at_epoch": 9240,
        "meta_bstar": 0,
        "meta_mean_motion_dot": -7.5e-07,
        "meta_mean_motion_ddot": 0,
        "tle_line1": "1 38250U 12018A   25343.10547537 -.00000075  00000+0  00000+0 0  9990",
        "tle_line2": "2 38250  55.9232 311.2798 0024470 273.7022  86.0063  1.86229533 92404"
      },
      "geometry": {
        "type": "Point",
        "coordinates": [
          144.15519980625578,
          -18.31329921354086
        ]
      }
    },
    {
      "type": "Feature",
      "properties": {
        "norad_id": 38251,
        "name": "BEIDOU-2 M4 (C12)",
        "group": "beidou",
        "lat": -50.148170254620645,
        "lon": -175.11707816222707,
        "alt_km": 21495.543842953044,
        "timestamp": "2025-12-10T11:33:53.650525+00:00",
        "meta_object_name": "BEIDOU-2 M4 (C12)",
        "meta_object_id": "2012-018B",
        "meta_epoch": "2025-12-09T00:54:02.015712",
        "meta_mean_motion": 1.86229239,
        "meta_eccentricity": 0.001562,
        "meta_inclination": 55.8247,
        "meta_ra_of_asc_node": 310.5113,
        "meta_arg_of_pericenter": 276.8164,
        "meta_mean_anomaly": 82.9941,
        "meta_ephemeris_type": 0,
        "meta_classification_type": "U",
        "meta_norad_cat_id": 38251,
        "meta_element_set_no": 999,
        "meta_rev_at_epoch": 9240,
        "meta_bstar": 0,
        "meta_mean_motion_dot": -7.4e-07,
        "meta_mean_motion_ddot": 0,
        "tle_line1": "1 38251U 12018B   25343.03752333 -.00000074  00000+0  00000+0 0  9994",
        "tle_line2": "2 38251  55.8247 310.5113 0015620 276.8164  82.9941  1.86229239 92404"
      },
      "geometry": {
        "type": "Point",
        "coordinates": [
          -175.11707816222707,
          -50.148170254620645
        ]
      }
    },
    {
      "type": "Feature",
      "properties": {
        "norad_id": 38775,
        "name": "BEIDOU-2 M6 (C14)",
        "group": "beidou",
        "lat": 55.62154137433568,
        "lon": 145.38625487712957,
        "alt_km": 21525.46843627222,
        "timestamp": "2025-12-10T11:33:53.650536+00:00",
        "meta_object_name": "BEIDOU-2 M6 (C14)",
        "meta_object_id": "2012-050B",
        "meta_epoch": "2025-12-09T06:50:59.454240",
        "meta_mean_motion": 1.86230769,
        "meta_eccentricity": 0.00110803,
        "meta_inclination": 56.3755,
        "meta_ra_of_asc_node": 69.1821,
        "meta_arg_of_pericenter": 345.0946,
        "meta_mean_anomaly": 14.8952,
        "meta_ephemeris_type": 0,
        "meta_classification_type": "U",
        "meta_norad_cat_id": 38775,
        "meta_element_set_no": 999,
        "meta_rev_at_epoch": 8977,
        "meta_bstar": 0,
        "meta_mean_motion_dot": -4.8e-07,
        "meta_mean_motion_ddot": 0,
        "tle_line1": "1 38775U 12050B   25343.28541035 -.00000048  00000+0  00000+0 0  9994",
        "tle_line2": "2 38775  56.3755  69.1821 0011080 345.0946  14.8952  1.86230769 89773"
      },
      "geometry": {
        "type": "Point",
        "coordinates": [
          145.38625487712957,
          55.62154137433568
        ]
      }
    },
    {
      "type": "Feature",
      "properties": {
        "norad_id": 38953,
        "name": "BEIDOU-2 G6 (C02)",
        "group": "beidou",
        "lat": -3.9029501775782043,
        "lon": -23.10598788216829,
        "alt_km": 35759.15801884092,
        "timestamp": "2025-12-10T11:33:53.650547+00:00",
        "meta_object_name": "BEIDOU-2 G6 (C02)",
        "meta_object_id": "2012-059A",
        "meta_epoch": "2025-12-09T20:49:14.248128",
        "meta_mean_motion": 1.00269717,
        "meta_eccentricity": 0.000755,
        "meta_inclination": 3.9416,
        "meta_ra_of_asc_node": 75.5266,
        "meta_arg_of_pericenter": 289.1257,
        "meta_mean_anomaly": 110.535,
        "meta_ephemeris_type": 0,
        "meta_classification_type": "U",
        "meta_norad_cat_id": 38953,
        "meta_element_set_no": 999,
        "meta_rev_at_epoch": 4801,
        "meta_bstar": 0,
        "meta_mean_motion_dot": -1.73e-06,
        "meta_mean_motion_ddot": 0,
        "tle_line1": "1 38953U 12059A   25343.86752602 -.00000173  00000+0  00000+0 0  9998",
        "tle_line2": "2 38953   3.9416  75.5266 0007550 289.1257 110.5350  1.00269717 48016"
      },
      "geometry": {
        "type": "Point",
        "coordinates": [
          -23.10598788216829,
          -3.9029501775782043
        ]
      }
    },
    {
      "type": "Feature",
      "properties": {
        "norad_id": 40549,
        "name": "BEIDOU-3S IGSO-1S (C31)",
        "group": "beidou",
        "lat": 34.98530794917064,
        "lon": -25.702566587142986,
        "alt_km": 35902.89488549973,
        "timestamp": "2025-12-10T11:33:53.650559+00:00",
        "meta_object_name": "BEIDOU-3S IGSO-1S (C31)",
        "meta_object_id": "2015-019A",
        "meta_epoch": "2025-12-07T20:38:38.671584",
        "meta_mean_motion": 1.00293516,
        "meta_eccentricity": 0.00368211,
        "meta_inclination": 49.562,
        "meta_ra_of_asc_node": 297.7693,
        "meta_arg_of_pericenter": 193.8977,
        "meta_mean_anomaly": 348.5751,
        "meta_ephemeris_type": 0,
        "meta_classification_type": "U",
        "meta_norad_cat_id": 40549,
        "meta_element_set_no": 999,
        "meta_rev_at_epoch": 3915,
        "meta_bstar": 0,
        "meta_mean_motion_dot": -1.86e-06,
        "meta_mean_motion_ddot": 0,
        "tle_line1": "1 40549U 15019A   25341.86016981 -.00000186  00000+0  00000+0 0  9996",
        "tle_line2": "2 40549  49.5620 297.7693 0036821 193.8977 348.5751  1.00293516 39155"
      },
      "geometry": {
        "type": "Point",
        "coordinates": [
          -25.702566587142986,
          34.98530794917064
        ]
      }
    },
    {
      "type": "Feature",
      "properties": {
        "norad_id": 40748,
        "name": "BEIDOU-3S M2S (C58)",
        "group": "beidou",
        "lat": 50.05518982585974,
        "lon": 71.92696063933002,
        "alt_km": 21554.258373015004,
        "timestamp": "2025-12-10T11:33:53.650570+00:00",
        "meta_object_name": "BEIDOU-3S M2S (C58)",
        "meta_object_id": "2015-037A",
        "meta_epoch": "2025-12-09T05:49:19.735392",
        "meta_mean_motion": 1.86228936,
        "meta_eccentricity": 0.00124384,
        "meta_inclination": 55.042,
        "meta_ra_of_asc_node": 308.5839,
        "meta_arg_of_pericenter": 267.3919,
        "meta_mean_anomaly": 92.4547,
        "meta_ephemeris_type": 0,
        "meta_classification_type": "U",
        "meta_norad_cat_id": 40748,
        "meta_element_set_no": 999,
        "meta_rev_at_epoch": 7058,
        "meta_bstar": 0,
        "meta_mean_motion_dot": -7.5e-07,
        "meta_mean_motion_ddot": 0,
        "tle_line1": "1 40748U 15037A   25343.24258953 -.00000075  00000+0  00000+0 0  9995",
        "tle_line2": "2 40748  55.0420 308.5839 0012438 267.3919  92.4547  1.86228936 70588"
      },
      "geometry": {
        "type": "Point",
        "coordinates": [
          71.92696063933002,
          50.05518982585974
        ]
      }
    },
    {
      "type": "Feature",
      "properties": {
        "norad_id": 40749,
        "name": "BEIDOU-3S M1S (C57)",
        "group": "beidou",
        "lat": -34.4745814021545,
        "lon": -80.17913204778131,
        "alt_km": 21522.866009510697,
        "timestamp": "2025-12-10T11:33:53.650581+00:00",
        "meta_object_name": "BEIDOU-3S M1S (C57)",
        "meta_object_id": "2015-037B",
        "meta_epoch": "2025-12-08T22:28:18.289056",
        "meta_mean_motion": 1.86253835,
        "meta_eccentricity": 0.0003421,
        "meta_inclination": 55.0388,
        "meta_ra_of_asc_node": 308.5837,
        "meta_arg_of_pericenter": 357.7489,
        "meta_mean_anomaly": 2.238,
        "meta_ephemeris_type": 0,
        "meta_classification_type": "U",
        "meta_norad_cat_id": 40749,
        "meta_element_set_no": 999,
        "meta_rev_at_epoch": 7058,
        "meta_bstar": 0,
        "meta_mean_motion_dot": -7.4e-07,
        "meta_mean_motion_ddot": 0,
        "tle_line1": "1 40749U 15037B   25342.93632279 -.00000074  00000+0  00000+0 0  9997",
        "tle_line2": "2 40749  55.0388 308.5837 0003421 357.7489   2.2380  1.86253835 70588"
      },
      "geometry": {
        "type": "Point",
        "coordinates": [
          -80.17913204778131,
          -34.4745814021545
        ]
      }
    }
  ]
}